IRIDIUM 119             
1 42959U 17061E   25361.28683528  .00000338  00000+0  11378-3 0  9999
2 42959  86.3974  97.1365 0001928 102.1386 258.0026 14.34219121430176
IRIDIUM 107             
1 42960U 17061F   25361.23609625  .00000007  00000+0 -46086-5 0  9992
2 42960  86.3970  97.1777 0002265 106.3633 253.7812 14.34217609430171
IRIDIUM 132             
1 42961U 17061G   25361.24243898 -.00000008  00000+0 -98374-5 0  9999
2 42961  86.3972  97.1558 0002061 100.6430 259.4998 14.34217331430177
IRIDIUM 136             
1 42962U 17061H   25361.20438280 -.00000024  00000+0 -15630-4 0  9998
2 42962  86.3971  97.1774 0001948 100.9160 259.2255 14.34217451430181
IRIDIUM 139             
1 42963U 17061J   25361.28049422 -.00000034  00000+0 -19236-4 0  9990
2 42963  86.3974  97.2047 0002206 100.1402 260.0043 14.34217651430208
IRIDIUM 125             
1 42964U 17061K   25361.26780701  .00000068  00000+0  17317-4 0  9994
2 42964  86.3973  97.2681 0002121 112.7033 247.4387 14.34216409430218
IRIDIUM 135             
1 43070U 17083A   25361.17216636  .00000103  00000+0  29667-4 0  9999
2 43070  86.3954  33.9086 0002113  91.8599 268.2838 14.34217738419492
IRIDIUM 138             
1 43071U 17083B   25361.19753556  .00000200  00000+0  64328-4 0  9990
2 43071  86.3970  33.5671 0001853  99.7880 260.3525 14.34217918419482
